HALOSAT                 
1 43549U 98067NX  20133.11065349  .00016267  00000-0  12648-3 0  9999
2 43549  51.6350 116.8303 0003413 344.5872  15.5022 15.71927347104098
ENDUROSAT ONE           
1 43551U 98067NZ  20133.37629375  .00034615  00000-0  19834-3 0  9996
2 43551  51.6343 105.7517 0003799   4.5072 355.5962 15.78464084104674
EQUISAT                 
1 43552U 98067PA  20133.34587895  .00019857  00000-0  14868-3 0  9997
2 43552  51.6356 113.9398 0004401 346.2591  13.8287 15.72653873104528
AEROCUBE 12A            
1 43556U 18046C   20132.65742483  .00000574  00000-0  32043-4 0  9991
2 43556  51.6423 282.3473 0008504 160.2994 199.8316 15.29711212101744
AEROCUBE 12B            
1 43557U 18046D   20132.71155757  .00000637  00000-0  34472-4 0  9999
2 43557  51.6422 282.6983 0008586 160.2558 199.8756 15.29437750101693
UITMSAT-1               
1 43589U 98067PD  20133.36470135  .00026213  00000-0  17661-3 0  9995
2 43589  51.6321 112.3889 0004288   3.6828 356.4203 15.74934168100282
MAYA-1                  
1 43590U 98067PE  20132.97682621  .00027071  00000-0  18232-3 0  9996
2 43590  51.6306 114.3071 0004425   0.1338 359.9662 15.74922459100156
BHUTAN-1                
1 43591U 98067PF  20133.20637218  .00025943  00000-0  17392-3 0  9998
2 43591  51.6336 112.9013 0004454   3.8639 356.2394 15.75055557100199
SIRIUSSAT-1             
1 43595U 98067PG  20133.14123729  .00020956  00000-0  15558-3 0  9993
2 43595  51.6315 117.6836 0002014 356.1821   3.9162 15.72820510 99307
SIRIUSSAT-2             
1 43596U 98067PH  20133.45471973  .00021300  00000-0  15863-3 0  9998
2 43596  51.6327 116.8486 0002105 346.6074  13.4868 15.72735053 99348
TANUSHA-3               
1 43597U 98067PJ  20132.88377485  .00050245  00000-0  25068-3 0  9996
2 43597  51.6293 109.0653 0003134  32.6665 327.4531 15.81339169 99390
SURFSAT                 
1 43614U 18070B   20133.45058864  .00002031  00000-0  52518-4 0  9994
2 43614  93.0201 139.7116 0018052 112.5350 247.7817 15.39026451 92942
CP7 (DAVE)              
1 43615U 18070C   20133.47872066  .00002016  00000-0  52352-4 0  9994
2 43615  93.0203 139.7154 0018121 111.9439 248.3743 15.38889674 92943
ELFIN-B                 
1 43616U 18070D   20133.48481657  .00002933  00000-0  72980-4 0  9995
2 43616  93.0166 139.6497 0018687 113.7552 246.5665 15.40157389 92985
ELFIN-A                 
1 43617U 18070E   20132.67767570  .00003062  00000-0  75805-4 0  9990
2 43617  93.0218 139.7975 0018061 113.4589 246.8567 15.40325118 92867
CUBEBEL-1 (BSUSAT-1)    
1 43666U 18083E   20133.52466847  .00000927  00000-0  48545-4 0  9994
2 43666  97.4906 160.3413 0016321 121.4721  22.3502 15.18196426 85168
DEBRISSAT-2             
1 43680U 98067PR  20133.38776346  .00277450  43897-4  50112-3 0  9996
2 43680  51.6276  95.8389 0003675  83.7167 276.4261 16.01054619108342
CICERO 10               
1 43690U 18088A   20132.43378166  .00000827  00000-0  36227-4 0  9994
2 43690  85.0359 102.7131 0017340  86.5283 273.7941 15.20182790 83117
IRVINE01                
1 43693U 18088D   20133.08732761  .00001964  00000-0  82025-4 0  9994
2 43693  85.0336 101.0820 0020336  68.2074 292.1329 15.22725880 83318
PROXIMA I               
1 43694U 18088E   20132.86272102  .00000889  00000-0  37019-4 0  9996
2 43694  85.0303 101.0539 0021395  61.5173 298.8220 15.21914753 83289
PROXIMA II              
1 43696U 18088G   20132.86099801  .00000884  00000-0  36773-4 0  9992
2 43696  85.0305 101.0583 0021442  61.4521 298.8876 15.21917246 83277
FACSAT-1                
1 43721U 18096C   20133.43584475  .00001053  00000-0  42281-4 0  9990
2 43721  97.4218 207.2038 0016065 247.7639 112.1896 15.27132953 80899
CENTAURI-2              
1 43722U 18096D   20132.68767997  .00001476  00000-0  57263-4 0  9994
2 43722  97.4229 206.7005 0016025 250.4002 109.5507 15.27630825 80789
INNOSAT-2               
1 43738U 18096V   20133.29866126  .00001961  00000-0  69438-4 0  9999
2 43738  97.4245 209.1289 0021834 256.5097 103.3710 15.30163713 81005
SIRION PATHFINDER-2     
1 43759U 18099B   20133.44191869 -.00000257  00000-0 -18120-4 0  9998
2 43759  97.7068 205.7126 0013039 307.4510  52.5523 14.95264569 78543
CORVUS-BC 4             
1 43767U 18099K   20133.10200061 -.00000065  00000-0 -73200-6 0  9994
2 43767  97.7050 204.8287 0010610 314.1232  45.9115 14.94710687 78470
MOVE-II                 
1 43780U 18099Y   20133.25709777  .00000183  00000-0  21751-4 0  9994
2 43780  97.7072 205.4518 0012409 320.1976  39.8333 14.95366468 78506
SPACEBEE-7              
1 43816U 18099BL  20133.13667540  .00000518  00000-0  51734-4 0  9998
2 43816  97.7084 205.7025 0011969 303.3637  56.6438 14.95664220 78063
SPACEBEE-5              
1 43817U 18099BM  20133.30510373  .00000510  00000-0  50295-4 0  9992
2 43817  97.7139 206.2582 0011550 303.5428  56.4690 14.96243781 78104
SPACEBEE-6              
1 43818U 18099BN  20133.17152087  .00000153  00000-0  18856-4 0  9992
2 43818  97.7103 205.8587 0011891 303.9165  56.0925 14.95848797 78223
SHIELDS 1               
1 43850U 18104B   20132.69765980  .00000041  00000-0  00000-0 0  9997
2 43850  85.0317 199.6445 0013308 195.4857 164.6020 15.21357863 77888
STF-1                   
1 43852U 18104D   20133.16823450  .00000041  00000-0  00000+0 0  9998
2 43852  85.0363 199.8506 0012977 209.3502 150.7115 15.21217639 77937
ZACUBE-2                
1 43907U 18111AH  20133.41908681  .00000362  00000-0  17492-4 0  9999
2 43907  97.2686  34.2625 0019756 271.3690  88.5285 15.24556439 76521
LUME 1                  
1 43908U 18111AJ  20132.95979852  .00000766  00000-0  33405-4 0  9996
2 43908  97.2686  33.9635 0019511 272.8306  87.0699 15.24977558 76463
AOBA VELOX-IV           
1 43940U 19003J   20132.82933560  .00001733  00000-0  71975-4 0  9994
2 43940  97.2311 185.3605 0023631 357.5220   2.5897 15.24897160 73062
CATSAT-2                
1 44029U 98067PV  20133.42091416  .00009314  00000-0  10146-3 0  9997
2 44029  51.6374 138.5386 0004021 329.8150  30.2612 15.64204760 72880
DELPHINI                
1 44030U 98067PW  20133.01306928  .00014114  00000-0  14576-3 0  9996
2 44030  51.6332 139.4684 0003915 330.3927  29.6846 15.65061942 72804
UNITE                   
1 44031U 98067PX  20132.36988022  .00007523  00000-0  94869-4 0  9995
2 44031  51.6358 148.7328 0002795 316.9252  43.1522 15.60713691 72629
CATSAT-1                
1 44033U 98067PZ  20132.65413828  .00009394  00000-0  10234-3 0  9997
2 44033  51.6373 142.4236 0003824 325.2263  34.8482 15.64190681 72675
RAAVANA-1               
1 44329U 98067QE  20133.00714898  .00006927  00000-0  99750-4 0  9996
2 44329  51.6373 156.7862 0004901 228.6073 131.4498 15.57279704 51324
UGUISU                  
1 44330U 98067QF  20132.44025992  .00007086  00000-0  10217-3 0  9992
2 44330  51.6374 159.7457 0004945 224.6846 135.3748 15.57202267 51211
NEPALISAT-1             
1 44331U 98067QG  20133.44939001  .00006572  00000-0  94863-4 0  9998
2 44331  51.6374 154.4891 0004966 232.5465 127.5075 15.57316004 51383
SPOOQY-1                
1 44332U 98067QH  20132.35981658  .00007142  00000-0  10287-3 0  9994
2 44332  51.6375 159.9588 0003972 231.5474 128.5162 15.57218170 51173
SPACEBEE-9              
1 44370U 19037F   20132.90063636  .00006785  00000-0  15809-3 0  9991
2 44370  45.0158 320.0467 0013869 326.4725  33.5247 15.42981694 48950
SPACEBEE-8              
1 44371U 19037G   20132.93785354  .00013108  00000-0  26238-3 0  9998
2 44371  45.0181 315.2726 0011380 324.0299  35.9782 15.46737596 49008
IOD-1 GEMS              
1 44385U 98067QK  20132.59079009  .00011357  00000-0  14829-3 0  9995
2 44385  51.6385 157.7969 0001361 162.7284 197.3756 15.59187599 48738
MOVE-IIB                
1 44398U 19038N   20133.09446386  .00000846  00000-0  52474-4 0  9992
2 44398  97.5334  94.7977 0023528 252.0289 107.8376 15.12255640 47084
SONATE                  
1 44400U 19038Q   20133.45144407  .00000366  00000-0  25079-4 0  9993
2 44400  97.5370  95.1678 0023631 248.8759 110.9945 15.11925526 47130
LUCKY-7                 
1 44406U 19038W   20132.81163560  .00000393  00000-0  26467-4 0  9991
2 44406  97.5363  94.6278 0023085 250.9248 108.9482 15.12182688 47035
BEESAT 9                
1 44412U 19038AC  20132.87819776  .00000577  00000-0  37067-4 0  9993
2 44412  97.5355  94.6747 0021117 256.9119 102.9755 15.12248866 46746
JAISAT-1                
1 44419U 19038F   20132.84401712  .00000680  00000-0  42413-4 0  9990
2 44419  97.5357  94.8776 0019914 256.1376 103.7639 15.12732054 47061
SWIATOWID               
1 44426U 98067QL  20133.41836563  .00012615  00000-0  15957-3 0  9990
2 44426  51.6396 153.2609 0001781 161.2583 340.0274 15.59914146 48884
KRAKSAT                 
1 44427U 98067QM  20133.38424413  .00004703  00000-0  74487-4 0  9997
2 44427  51.6407 157.5606 0002895 162.5816 327.1275 15.55514038 48869
VCC A                   
1 44428U 98067QN  20133.43470065  .00005895  00000-0  87787-4 0  9998
2 44428  51.6392 155.9294 0001565 194.8578 165.2368 15.56682291 48899
ENTRYSAT                
1 44429U 98067QP  20132.59149997  .00008014  00000-0  11329-3 0  9996
2 44429  51.6379 159.2770 0001399 172.6842 187.4171 15.57529885 48779
VCC C                   
1 44430U 98067QQ  20132.46228813  .00011533  00000-0  15404-3 0  9997
2 44430  51.6368 159.1750 0000977 198.5358 161.5599 15.58562678 47589
VCC B                   
1 44431U 98067QR  20132.47231940  .00006388  00000-0  94487-4 0  9995
2 44431  51.6379 160.7406 0001811 189.5635 170.5322 15.56702815 48687
ATL-1                   
1 44830U 19084G   20133.09418267  .00037298  00000-0  24272-3 0  9996
2 44830  96.9792   1.9798 0028371  21.5443 338.7010 15.75265928 24724
SMOG-P                  
1 44832U 19084J   20132.92633383  .00046559  00000-0  29116-3 0  9999
2 44832  96.9798   1.9186 0027481  20.7896 339.4482 15.76170308 24704
